[{"OBJECT_NAME":"STARLINK-30835","OBJECT_ID":"2023-170P","EPOCH":"2026-03-09T22:00:01.999584","MEAN_MOTION":15.26734446,"ECCENTRICITY":0.00013973,"INCLINATION":42.9999,"RA_OF_ASC_NODE":192.6851,"ARG_OF_PERICENTER":265.0727,"MEAN_ANOMALY":222.1467,"EPHEMERIS_TYPE":0,"CLASSIFICATION_TYPE":"U","NORAD_CAT_ID":58219,"ELEMENT_SET_NO":999,"REV_AT_EPOCH":568,"BSTAR":0.0008521032,"MEAN_MOTION_DOT":0.00022663,"MEAN_MOTION_DDOT":0},{"OBJECT_NAME":"OBJECT BE","OBJECT_ID":"2025-313BE","EPOCH":"2026-03-09T16:43:59.380320","MEAN_MOTION":15.29801687,"ECCENTRICITY":0.00072083,"INCLINATION":97.3989,"RA_OF_ASC_NODE":145.3568,"ARG_OF_PERICENTER":335.3714,"MEAN_ANOMALY":24.7181,"EPHEMERIS_TYPE":0,"CLASSIFICATION_TYPE":"U","NORAD_CAT_ID":67482,"ELEMENT_SET_NO":999,"REV_AT_EPOCH":797,"BSTAR":0.0026504328,"MEAN_MOTION_DOT":0.00077178,"MEAN_MOTION_DDOT":0}]
